[{"OBJECT_NAME":"ONEWEB-0171","OBJECT_ID":"2021-025AE","EPOCH":"2026-03-04T06:34:39.825120","MEAN_MOTION":13.13470591,"ECCENTRICITY":0.0001766,"INCLINATION":87.9038,"RA_OF_ASC_NODE":341.0995,"ARG_OF_PERICENTER":82.114,"MEAN_ANOMALY":278.019,"EPHEMERIS_TYPE":0,"CLASSIFICATION_TYPE":"U","NORAD_CAT_ID":48070,"ELEMENT_SET_NO":999,"REV_AT_EPOCH":23984,"BSTAR":-0.00074912,"MEAN_MOTION_DOT":-2.61e-6,"MEAN_MOTION_DDOT":0},{"OBJECT_NAME":"ONEWEB-0172","OBJECT_ID":"2021-025AF","EPOCH":"2026-03-04T06:05:25.912896","MEAN_MOTION":13.13469606,"ECCENTRICITY":0.0001876,"INCLINATION":87.9039,"RA_OF_ASC_NODE":341.0908,"ARG_OF_PERICENTER":82.2709,"MEAN_ANOMALY":277.8634,"EPHEMERIS_TYPE":0,"CLASSIFICATION_TYPE":"U","NORAD_CAT_ID":48071,"ELEMENT_SET_NO":999,"REV_AT_EPOCH":24073,"BSTAR":-0.00075918,"MEAN_MOTION_DOT":-2.64e-6,"MEAN_MOTION_DDOT":0},{"OBJECT_NAME":"ONEWEB-0174","OBJECT_ID":"2021-025AG","EPOCH":"2026-03-04T07:28:18.963840","MEAN_MOTION":13.13468783,"ECCENTRICITY":0.0001823,"INCLINATION":87.9039,"RA_OF_ASC_NODE":341.0808,"ARG_OF_PERICENTER":73.6104,"MEAN_ANOMALY":286.5225,"EPHEMERIS_TYPE":0,"CLASSIFICATION_TYPE":"U","NORAD_CAT_ID":48072,"ELEMENT_SET_NO":999,"REV_AT_EPOCH":24006,"BSTAR":0.00040583,"MEAN_MOTION_DOT":1.61e-6,"MEAN_MOTION_DDOT":0},{"OBJECT_NAME":"ONEWEB-0175","OBJECT_ID":"2021-025AH","EPOCH":"2026-03-04T06:22:29.815104","MEAN_MOTION":13.13469697,"ECCENTRICITY":0.0001793,"INCLINATION":87.9046,"RA_OF_ASC_NODE":341.0648,"ARG_OF_PERICENTER":89.8698,"MEAN_ANOMALY":270.2636,"EPHEMERIS_TYPE":0,"CLASSIFICATION_TYPE":"U","NORAD_CAT_ID":48073,"ELEMENT_SET_NO":999,"REV_AT_EPOCH":23971,"BSTAR":-0.00052196,"MEAN_MOTION_DOT":-1.78e-6,"MEAN_MOTION_DDOT":0},{"OBJECT_NAME":"ONEWEB-0177","OBJECT_ID":"2021-025AJ","EPOCH":"2026-03-04T06:39:33.464160","MEAN_MOTION":13.13470244,"ECCENTRICITY":0.0001951,"INCLINATION":87.905,"RA_OF_ASC_NODE":341.0836,"ARG_OF_PERICENTER":76.0554,"MEAN_ANOMALY":284.0792,"EPHEMERIS_TYPE":0,"CLASSIFICATION_TYPE":"U","NORAD_CAT_ID":48074,"ELEMENT_SET_NO":999,"REV_AT_EPOCH":23990,"BSTAR":0.00019082,"MEAN_MOTION_DOT":8.2e-7,"MEAN_MOTION_DDOT":0},{"OBJECT_NAME":"ONEWEB-0178","OBJECT_ID":"2021-025AK","EPOCH":"2026-03-04T07:06:34.949376","MEAN_MOTION":13.13469801,"ECCENTRICITY":0.0001899,"INCLINATION":87.9031,"RA_OF_ASC_NODE":341.1081,"ARG_OF_PERICENTER":86.4035,"MEAN_ANOMALY":273.7311,"EPHEMERIS_TYPE":0,"CLASSIFICATION_TYPE":"U","NORAD_CAT_ID":48075,"ELEMENT_SET_NO":999,"REV_AT_EPOCH":23995,"BSTAR":0.0010357,"MEAN_MOTION_DOT":3.91e-6,"MEAN_MOTION_DDOT":0},{"OBJECT_NAME":"ONEWEB-0108","OBJECT_ID":"2021-025AL","EPOCH":"2026-03-04T06:07:51.684384","MEAN_MOTION":13.13469595,"ECCENTRICITY":0.0001572,"INCLINATION":87.9046,"RA_OF_ASC_NODE":341.0763,"ARG_OF_PERICENTER":72.6423,"MEAN_ANOMALY":287.4878,"EPHEMERIS_TYPE":0,"CLASSIFICATION_TYPE":"U","NORAD_CAT_ID":48076,"ELEMENT_SET_NO":999,"REV_AT_EPOCH":23987,"BSTAR":-0.00076156,"MEAN_MOTION_DOT":-2.65e-6,"MEAN_MOTION_DDOT":0},{"OBJECT_NAME":"ONEWEB-0169","OBJECT_ID":"2021-025AM","EPOCH":"2026-03-04T06:54:10.912320","MEAN_MOTION":13.13469728,"ECCENTRICITY":0.0001608,"INCLINATION":87.9041,"RA_OF_ASC_NODE":341.0861,"ARG_OF_PERICENTER":73.6983,"MEAN_ANOMALY":286.4323,"EPHEMERIS_TYPE":0,"CLASSIFICATION_TYPE":"U","NORAD_CAT_ID":48077,"ELEMENT_SET_NO":999,"REV_AT_EPOCH":23853,"BSTAR":0.00068201,"MEAN_MOTION_DOT":2.62e-6,"MEAN_MOTION_DDOT":0},{"OBJECT_NAME":"ONEWEB-0176","OBJECT_ID":"2021-031A","EPOCH":"2026-03-04T05:06:05.464800","MEAN_MOTION":13.14501385,"ECCENTRICITY":0.0001709,"INCLINATION":87.8997,"RA_OF_ASC_NODE":310.644,"ARG_OF_PERICENTER":83.0577,"MEAN_ANOMALY":277.0747,"EPHEMERIS_TYPE":0,"CLASSIFICATION_TYPE":"U","NORAD_CAT_ID":48210,"ELEMENT_SET_NO":999,"REV_AT_EPOCH":23452,"BSTAR":0.00072892,"MEAN_MOTION_DOT":2.83e-6,"MEAN_MOTION_DDOT":0},{"OBJECT_NAME":"ONEWEB-0184","OBJECT_ID":"2021-031B","EPOCH":"2026-03-04T04:27:15.841728","MEAN_MOTION":13.14502785,"ECCENTRICITY":0.0002054,"INCLINATION":87.9011,"RA_OF_ASC_NODE":310.6388,"ARG_OF_PERICENTER":105.0973,"MEAN_ANOMALY":255.0384,"EPHEMERIS_TYPE":0,"CLASSIFICATION_TYPE":"U","NORAD_CAT_ID":48211,"ELEMENT_SET_NO":999,"REV_AT_EPOCH":23449,"BSTAR":-0.00018674,"MEAN_MOTION_DOT":-5.6e-7,"MEAN_MOTION_DDOT":0},{"OBJECT_NAME":"ONEWEB-0179","OBJECT_ID":"2021-031C","EPOCH":"2026-03-04T05:34:38.038080","MEAN_MOTION":13.14502474,"ECCENTRICITY":0.0001792,"INCLINATION":87.9002,"RA_OF_ASC_NODE":310.6323,"ARG_OF_PERICENTER":72.9702,"MEAN_ANOMALY":287.1624,"EPHEMERIS_TYPE":0,"CLASSIFICATION_TYPE":"U","NORAD_CAT_ID":48212,"ELEMENT_SET_NO":999,"REV_AT_EPOCH":23454,"BSTAR":7.4161e-5,"MEAN_MOTION_DOT":4.0e-7,"MEAN_MOTION_DDOT":0},{"OBJECT_NAME":"ONEWEB-0180","OBJECT_ID":"2021-031D","EPOCH":"2026-03-04T04:31:50.018304","MEAN_MOTION":13.145021,"ECCENTRICITY":0.0001971,"INCLINATION":87.9002,"RA_OF_ASC_NODE":310.6421,"ARG_OF_PERICENTER":81.5621,"MEAN_ANOMALY":278.5732,"EPHEMERIS_TYPE":0,"CLASSIFICATION_TYPE":"U","NORAD_CAT_ID":48213,"ELEMENT_SET_NO":999,"REV_AT_EPOCH":23442,"BSTAR":-5.5746e-5,"MEAN_MOTION_DOT":-8.0e-8,"MEAN_MOTION_DDOT":0},{"OBJECT_NAME":"ONEWEB-0218","OBJECT_ID":"2021-031E","EPOCH":"2026-03-04T05:03:48.746304","MEAN_MOTION":13.14502087,"ECCENTRICITY":0.0002296,"INCLINATION":87.9,"RA_OF_ASC_NODE":310.6372,"ARG_OF_PERICENTER":98.9506,"MEAN_ANOMALY":261.1884,"EPHEMERIS_TYPE":0,"CLASSIFICATION_TYPE":"U","NORAD_CAT_ID":48214,"ELEMENT_SET_NO":999,"REV_AT_EPOCH":23458,"BSTAR":0.00065128,"MEAN_MOTION_DOT":2.54e-6,"MEAN_MOTION_DDOT":0},{"OBJECT_NAME":"ONEWEB-0209","OBJECT_ID":"2021-031F","EPOCH":"2026-03-04T04:47:48.967584","MEAN_MOTION":13.14501964,"ECCENTRICITY":0.0001839,"INCLINATION":87.8987,"RA_OF_ASC_NODE":310.6667,"ARG_OF_PERICENTER":76.8585,"MEAN_ANOMALY":283.275,"EPHEMERIS_TYPE":0,"CLASSIFICATION_TYPE":"U","NORAD_CAT_ID":48215,"ELEMENT_SET_NO":999,"REV_AT_EPOCH":23458,"BSTAR":0.00049153,"MEAN_MOTION_DOT":1.95e-6,"MEAN_MOTION_DDOT":0},{"OBJECT_NAME":"ONEWEB-0198","OBJECT_ID":"2021-031G","EPOCH":"2026-03-04T04:25:10.798464","MEAN_MOTION":13.14502243,"ECCENTRICITY":0.0002079,"INCLINATION":87.8993,"RA_OF_ASC_NODE":310.6686,"ARG_OF_PERICENTER":84.9279,"MEAN_ANOMALY":275.2088,"EPHEMERIS_TYPE":0,"CLASSIFICATION_TYPE":"U","NORAD_CAT_ID":48216,"ELEMENT_SET_NO":999,"REV_AT_EPOCH":23469,"BSTAR":-0.00025572,"MEAN_MOTION_DOT":-8.2e-7,"MEAN_MOTION_DDOT":0},{"OBJECT_NAME":"ONEWEB-0189","OBJECT_ID":"2021-031H","EPOCH":"2026-03-04T04:43:15.102912","MEAN_MOTION":13.1450234,"ECCENTRICITY":0.0001982,"INCLINATION":87.8997,"RA_OF_ASC_NODE":310.643,"ARG_OF_PERICENTER":85.0541,"MEAN_ANOMALY":275.0815,"EPHEMERIS_TYPE":0,"CLASSIFICATION_TYPE":"U","NORAD_CAT_ID":48217,"ELEMENT_SET_NO":999,"REV_AT_EPOCH":23443,"BSTAR":0.00041503,"MEAN_MOTION_DOT":1.67e-6,"MEAN_MOTION_DDOT":0},{"OBJECT_NAME":"ONEWEB-0196","OBJECT_ID":"2021-031J","EPOCH":"2026-03-04T04:11:16.749024","MEAN_MOTION":13.14502535,"ECCENTRICITY":0.0001818,"INCLINATION":87.8999,"RA_OF_ASC_NODE":310.658,"ARG_OF_PERICENTER":80.8663,"MEAN_ANOMALY":279.2672,"EPHEMERIS_TYPE":0,"CLASSIFICATION_TYPE":"U","NORAD_CAT_ID":48218,"ELEMENT_SET_NO":999,"REV_AT_EPOCH":23443,"BSTAR":-0.00046286,"MEAN_MOTION_DOT":-1.59e-6,"MEAN_MOTION_DDOT":0}]
