ONEWEB-0171             
1 48070U 21025AE  26063.27407205 -.00000261  00000+0 -74912-3 0  9999
2 48070  87.9038 341.0995 0001766  82.1140 278.0190 13.13470591239840
ONEWEB-0172             
1 48071U 21025AF  26063.25377214 -.00000264  00000+0 -75918-3 0  9994
2 48071  87.9039 341.0908 0001876  82.2709 277.8634 13.13469606240735
ONEWEB-0174             
1 48072U 21025AG  26063.31133060  .00000161  00000+0  40583-3 0  9995
2 48072  87.9039 341.0808 0001823  73.6104 286.5225 13.13468783240064
ONEWEB-0175             
1 48073U 21025AH  26063.26562286 -.00000178  00000+0 -52196-3 0  9999
2 48073  87.9046 341.0648 0001793  89.8698 270.2636 13.13469697239719
ONEWEB-0177             
1 48074U 21025AJ  26063.27747065  .00000082  00000+0  19082-3 0  9990
2 48074  87.9050 341.0836 0001951  76.0554 284.0792 13.13470244239906
ONEWEB-0178             
1 48075U 21025AK  26063.29623784  .00000391  00000+0  10357-2 0  9992
2 48075  87.9031 341.1081 0001899  86.4035 273.7311 13.13469801239953
ONEWEB-0108             
1 48076U 21025AL  26063.25545931 -.00000265  00000+0 -76156-3 0  9998
2 48076  87.9046 341.0763 0001572  72.6423 287.4878 13.13469595239873
ONEWEB-0169             
1 48077U 21025AM  26063.28762630  .00000262  00000+0  68201-3 0  9996
2 48077  87.9041 341.0861 0001608  73.6983 286.4323 13.13469728238534
ONEWEB-0176             
1 48210U 21031A   26063.21256325  .00000283  00000+0  72892-3 0  9998
2 48210  87.8997 310.6440 0001709  83.0577 277.0747 13.14501385234521
ONEWEB-0184             
1 48211U 21031B   26063.18560002 -.00000056  00000+0 -18674-3 0  9993
2 48211  87.9011 310.6388 0002054 105.0973 255.0384 13.14502785234494
ONEWEB-0179             
1 48212U 21031C   26063.23238470  .00000040  00000+0  74161-4 0  9996
2 48212  87.9002 310.6323 0001792  72.9702 287.1624 13.14502474234548
ONEWEB-0180             
1 48213U 21031D   26063.18877336 -.00000008  00000+0 -55746-4 0  9995
2 48213  87.9002 310.6421 0001971  81.5621 278.5732 13.14502100234420
ONEWEB-0218             
1 48214U 21031E   26063.21098086  .00000254  00000+0  65128-3 0  9992
2 48214  87.9000 310.6372 0002296  98.9506 261.1884 13.14502087234586
ONEWEB-0209             
1 48215U 21031F   26063.19987231  .00000195  00000+0  49153-3 0  9993
2 48215  87.8987 310.6667 0001839  76.8585 283.2750 13.14501964234581
ONEWEB-0198             
1 48216U 21031G   26063.18415276 -.00000082  00000+0 -25572-3 0  9994
2 48216  87.8993 310.6686 0002079  84.9279 275.2088 13.14502243234695
ONEWEB-0189             
1 48217U 21031H   26063.19670258  .00000167  00000+0  41503-3 0  9993
2 48217  87.8997 310.6430 0001982  85.0541 275.0815 13.14502340234439
ONEWEB-0196             
1 48218U 21031J   26063.17449941 -.00000159  00000+0 -46286-3 0  9991
2 48218  87.8999 310.6580 0001818  80.8663 279.2672 13.14502535234437
